LINGQIAO VIDEO A        
1 40959U 15057B   26195.85893064 -.00000112  00000+0 -89163-5 0  9998
2 40959  97.6626 189.2974 0016626 174.1391 186.0018 14.77424505579499
LINGQIAO VIDEO B        
1 40960U 15057C   26195.83361902  .00000484  00000+0  74445-4 0  9995
2 40960  97.6591 190.4296 0016795 174.1704 185.9706 14.77532714579537
JILIN-1                 
1 40961U 15057D   26195.83473799  .00000374  00000+0  58183-4 0  9993
2 40961  97.6519 193.8305 0017191 168.0535 192.1088 14.78201078579698
FOX-1A (AO-85)          
1 40967U 15058D   26195.71794219  .00001658  00000+0  15662-3 0  9990
2 40967  64.7725 193.4176 0132322  45.9898 315.2028 14.91086579117679
SINOD-D 1               
1 40968U 15058E   26195.35294344  .00002777  00000+0  22665-3 0  9999
2 40968  64.7732 173.8274 0120993  42.4784 318.5615 14.96082878120727
ELEKTRO-L 2             
1 41105U 15074A   26195.41356580 -.00000129  00000+0  00000+0 0  9994
2 41105   6.7595  70.1832 0001026 212.6794 143.7919  1.00272099 38775
DAMPE                   
1 41173U 15078A   26195.81842108  .00000422  00000+0  16747-4 0  9998
2 41173  97.4558 201.4225 0011628 347.0033  13.0907 15.30851546588773
ORBCOMM FM110           
1 41182U 15081D   26195.36091245  .00000162  00000+0  70462-4 0  9995
2 41182  47.0006 232.9546 0003572 219.5189 140.5437 14.58917339561598
ORBCOMM FM112           
1 41184U 15081F   26195.53631945  .00000282  00000+0  95891-4 0  9999
2 41184  46.9980 140.9155 0003755 325.1012  34.9627 14.58938034562947
ORBCOMM FM113           
1 41185U 15081G   26195.23994956  .00000121  00000+0  61714-4 0  9990
2 41185  46.9998 142.7075 0002274 317.9908  42.0803 14.58881501562881
ORBCOMM FM108           
1 41187U 15081J   26195.33893339  .00000269  00000+0  92976-4 0  9993
2 41187  47.0054  53.8203 0002697 318.9983  41.0700 14.58909878564049
ORBCOMM FM117           
1 41188U 15081K   26195.30466025  .00000246  00000+0  88289-4 0  9996
2 41188  47.0017  52.6096 0003119 325.9589  34.1096 14.58896900564082
ORBCOMM FM116           
1 41189U 15081L   26195.55874473  .00000074  00000+0  51828-4 0  9992
2 41189  47.0014 141.1971 0001505 227.8864 132.1894 14.58905372562930
ZIYUAN 3-02 (ZY 3-02)   
1 41556U 16033A   26195.88076574  .00003073  00000+0  13959-3 0  9994
2 41556  97.3830 271.1225 0014040 185.9697 174.1374 15.21432688562197
CARTOSAT-2C             
1 41599U 16040A   26195.85532103  .00001514  00000+0  74971-4 0  9991
2 41599  97.4470 255.4503 0009601  46.1403 314.0623 15.19259772557913
LAPAN-A3                
1 41603U 16040E   26195.86380791  .00001868  00000+0  60401-4 0  9997
2 41603  97.1504 191.1050 0008258 277.6802  82.3503 15.33276518559050
GAOFEN-3                
1 41727U 16049A   26195.83515468 -.00000134  00000+0 -27361-4 0  9996
2 41727  98.4011 203.2037 0001781  85.6052 274.5341 14.42218162522631
CAS-2T & KS-1Q          
1 41847U 16066G   26195.80491248  .00000542  00000+0  84315-4 0  9997
2 41847  98.3814 271.2251 0342254  45.9444 316.9396 14.44769868508781
YUNHAI-1 01             
1 41857U 16068A   26195.89439441 -.00000011  00000+0  12074-4 0  9991
2 41857  98.5844 206.6434 0003229 349.5209  10.5907 14.32721360505795
RESOURCESAT-2A          
1 41877U 16074A   26195.80146672 -.00000109  00000+0 -29652-4 0  9991
2 41877  98.7528 269.0786 0002444  29.5146 330.6168 14.21608196498227
TANSAT                  
1 41898U 16081A   26195.86818127  .00000104  00000+0  32202-4 0  9997
2 41898  98.5365 196.9449 0019429 221.1797 138.7937 14.59971127508663
JILIN-1 03              
1 41914U 17002B   26195.86673770  .00007686  00000+0  18075-3 0  9996
2 41914  97.1945 202.5735 0007887  80.3157 279.8982 15.42225692526123
CARTOSAT-2D             
1 41948U 17008A   26195.82122317  .00001099  00000+0  55291-4 0  9995
2 41948  97.4099 254.6080 0005950 139.6373 220.5304 15.19281410521772
CARTOSAT-2E             
1 42767U 17036C   26195.83898425  .00001289  00000+0  64371-4 0  9997
2 42767  97.4265 255.1830 0003186 191.0560 169.0605 15.19250546502344
