OBJECT_NAME,OBJECT_ID,EPOCH,MEAN_MOTION,ECCENTRICITY,INCLINATION,RA_OF_ASC_NODE,ARG_OF_PERICENTER,MEAN_ANOMALY,EPHEMERIS_TYPE,CLASSIFICATION_TYPE,NORAD_CAT_ID,ELEMENT_SET_NO,REV_AT_EPOCH,BSTAR,MEAN_MOTION_DOT,MEAN_MOTION_DDOT
LINGQIAO VIDEO A,2015-057B,2026-07-14T20:36:51.607296,14.77424505,.0016626,97.6626,189.2974,174.1391,186.0018,0,U,40959,999,57949,-.89163E-5,-.112E-5,0
LINGQIAO VIDEO B,2015-057C,2026-07-14T20:00:24.683328,14.77532714,.0016795,97.6591,190.4296,174.1704,185.9706,0,U,40960,999,57953,.74445E-4,.484E-5,0
JILIN-1,2015-057D,2026-07-14T20:02:01.362336,14.78201078,.0017191,97.6519,193.8305,168.0535,192.1088,0,U,40961,999,57969,.58183E-4,.374E-5,0
FOX-1A (AO-85),2015-058D,2026-07-14T17:13:50.205216,14.91086579,.0132322,64.7725,193.4176,45.9898,315.2028,0,U,40967,999,11767,.15662E-3,.1658E-4,0
SINOD-D 1,2015-058E,2026-07-14T08:28:14.313216,14.96082878,.01209938,64.7732,173.8274,42.4784,318.5615,0,U,40968,999,12072,.2266524E-3,.2777E-4,0
ELEKTRO-L 2,2015-074A,2026-07-14T09:55:32.085120,1.00272099,.00010268,6.7595,70.1832,212.6794,143.7919,0,U,41105,999,3877,0,-.129E-5,0
DAMPE,2015-078A,2026-07-14T19:38:31.581312,15.30851546,.0011628,97.4558,201.4225,347.0033,13.0907,0,U,41173,999,58877,.16747E-4,.422E-5,0
ORBCOMM FM110,2015-081D,2026-07-14T08:39:42.835680,14.58917339,.00035724,47.0006,232.9546,219.5189,140.5437,0,U,41182,999,56159,.7046223E-4,.162E-5,0
ORBCOMM FM112,2015-081F,2026-07-14T12:52:18.000480,14.58938034,.00037551,46.9980,140.9155,325.1012,34.9627,0,U,41184,999,56294,.95890912E-4,.282E-5,0
ORBCOMM FM113,2015-081G,2026-07-14T05:45:31.641984,14.58881501,.00022745,46.9998,142.7075,317.9908,42.0803,0,U,41185,999,56288,.61713681E-4,.121E-5,0
ORBCOMM FM108,2015-081J,2026-07-14T08:08:03.844896,14.58909878,.00026979,47.0054,53.8203,318.9983,41.0700,0,U,41187,999,56404,.92976424E-4,.269E-5,0
ORBCOMM FM117,2015-081K,2026-07-14T07:18:42.645600,14.58896900,.00031193,47.0017,52.6096,325.9589,34.1096,0,U,41188,999,56408,.88288599E-4,.246E-5,0
ORBCOMM FM116,2015-081L,2026-07-14T13:24:35.544672,14.58905372,.0001505,47.0014,141.1971,227.8864,132.1894,0,U,41189,999,56293,.51828E-4,.74E-6,0
ZIYUAN 3-02 (ZY 3-02),2016-033A,2026-07-14T21:08:18.159936,15.21432688,.001404,97.3830,271.1225,185.9697,174.1374,0,U,41556,999,56219,.13959E-3,.3073E-4,0
CARTOSAT-2C,2016-040A,2026-07-14T20:31:39.736992,15.19259772,.0009601,97.4470,255.4503,46.1403,314.0623,0,U,41599,999,55791,.74971E-4,.1514E-4,0
LAPAN-A3,2016-040E,2026-07-14T20:43:53.003424,15.33276518,.0008258,97.1504,191.1050,277.6802,82.3503,0,U,41603,999,55905,.60401E-4,.1868E-4,0
GAOFEN-3,2016-049A,2026-07-14T20:02:37.364352,14.42218162,.0001781,98.4011,203.2037,85.6052,274.5341,0,U,41727,999,52263,-.27361E-4,-.134E-5,0
CAS-2T & KS-1Q,2016-066G,2026-07-14T19:19:04.438272,14.44769868,.0342254,98.3814,271.2251,45.9444,316.9396,0,U,41847,999,50878,.84315E-4,.542E-5,0
YUNHAI-1 01,2016-068A,2026-07-14T21:27:55.677024,14.32721360,.0003229,98.5844,206.6434,349.5209,10.5907,0,U,41857,999,50579,.12074E-4,-.11E-6,0
RESOURCESAT-2A,2016-074A,2026-07-14T19:14:06.724608,14.21608196,.0002444,98.7528,269.0786,29.5146,330.6168,0,U,41877,999,49822,-.29652E-4,-.109E-5,0
TANSAT,2016-081A,2026-07-14T20:50:10.861728,14.59971127,.0019429,98.5365,196.9449,221.1797,138.7937,0,U,41898,999,50866,.32202E-4,.104E-5,0
JILIN-1 03,2017-002B,2026-07-14T20:48:06.137280,15.42225692,.0007887,97.1945,202.5735,80.3157,279.8982,0,U,41914,999,52612,.18075E-3,.7686E-4,0
CARTOSAT-2D,2017-008A,2026-07-14T19:42:33.681888,15.19281410,.000595,97.4099,254.6080,139.6373,220.5304,0,U,41948,999,52177,.55291E-4,.1099E-4,0
CARTOSAT-2E,2017-036C,2026-07-14T20:08:08.239200,15.19250546,.0003186,97.4265,255.1830,191.0560,169.0605,0,U,42767,999,50234,.64371E-4,.1289E-4,0
